start=new Date('2023-05-23T00:00:00.000Z').valueOf();
sats=[{"EPOCH":"2023-05-22T16:37:10.427520","FILE":"3914964","REV_AT_EPOCH":"5163","TIME_SYSTEM":"UTC","BSTAR":"0.00036406000000","NORAD_CAT_ID":"52852","INCLINATION":"53.2158","TLE_LINE1":"1 52852U 22062Y   23142.69248180  .00005512  00000-0  36406-3 0  9999","TLE_LINE2":"2 52852  53.2158 292.0412 0000876  68.7708 291.3378 15.08848395 51634","APOAPSIS":"540.326","DECAY_DATE":null,"ELEMENT_SET_NO":"999","LAUNCH_DATE":"2022-06-17","RCS_SIZE":"LARGE","MEAN_ANOMALY":"291.3378","MEAN_MOTION_DDOT":"0.0000000000000","OBJECT_NAME":"STARLINK-4184","GP_ID":"232358657","SITE":"AFETR","ARG_OF_PERICENTER":"68.7708","PERIAPSIS":"539.114","MEAN_MOTION":"15.08848395","CENTER_NAME":"EARTH","ECCENTRICITY":"0.00008760","SEMIMAJOR_AXIS":"6917.855","EPHEMERIS_TYPE":"0","RA_OF_ASC_NODE":"292.0412","OBJECT_ID":"2022-062Y","PERIOD":"95.437","COUNTRY_CODE":"US","MEAN_MOTION_DOT":"0.00005512","OBJECT_TYPE":"PAYLOAD","CLASSIFICATION_TYPE":"U","MEAN_ELEMENT_THEORY":"SGP4","REF_FRAME":"TEME"},{"INCLINATION":"53.2154","NORAD_CAT_ID":"52853","TLE_LINE1":"1 52853U 22062Z   23142.67503421  .00007039  00000-0  45978-3 0  9990","TLE_LINE2":"2 52853  53.2154 292.0936 0000926  85.0346 275.0751 15.08850880 51634","DECAY_DATE":null,"APOAPSIS":"540.353","ELEMENT_SET_NO":"999","LAUNCH_DATE":"2022-06-17","EPOCH":"2023-05-22T16:12:02.955744","FILE":"3914964","REV_AT_EPOCH":"5163","BSTAR":"0.00045978000000","TIME_SYSTEM":"UTC","SEMIMAJOR_AXIS":"6917.847","EPHEMERIS_TYPE":"0","OBJECT_ID":"2022-062Z","RA_OF_ASC_NODE":"292.0936","PERIOD":"95.437","OBJECT_TYPE":"PAYLOAD","CLASSIFICATION_TYPE":"U","MEAN_MOTION_DOT":"0.00007039","COUNTRY_CODE":"US","MEAN_ELEMENT_THEORY":"SGP4","REF_FRAME":"TEME","MEAN_MOTION_DDOT":"0.0000000000000","OBJECT_NAME":"STARLINK-4189","MEAN_ANOMALY":"275.0751","RCS_SIZE":"LARGE","GP_ID":"232359907","SITE":"AFETR","ARG_OF_PERICENTER":"85.0346","MEAN_MOTION":"15.08850880","PERIAPSIS":"539.072","CENTER_NAME":"EARTH","ECCENTRICITY":"0.00009260"},{"FILE":"3914923","REV_AT_EPOCH":"5214","EPOCH":"2023-05-22T19:32:02.745888","BSTAR":"0.00102310000000","TIME_SYSTEM":"UTC","INCLINATION":"53.2162","NORAD_CAT_ID":"52854","TLE_LINE1":"1 52854U 22062AA  23142.81392067  .00016042  00000-0  10231-2 0  9996","TLE_LINE2":"2 52854  53.2162 291.4959 0000895  97.9047 262.2047 15.08862855 52145","ELEMENT_SET_NO":"999","LAUNCH_DATE":"2022-06-17","DECAY_DATE":null,"APOAPSIS":"540.295","SITE":"AFETR","ARG_OF_PERICENTER":"97.9047","MEAN_MOTION_DDOT":"0.0000000000000","OBJECT_NAME":"STARLINK-4204","MEAN_ANOMALY":"262.2047","RCS_SIZE":"LARGE","GP_ID":"232335201","ECCENTRICITY":"0.00008950","MEAN_MOTION":"15.08862855","PERIAPSIS":"539.056","CENTER_NAME":"EARTH","RA_OF_ASC_NODE":"291.4959","OBJECT_ID":"2022-062AA","PERIOD":"95.436","SEMIMAJOR_AXIS":"6917.811","EPHEMERIS_TYPE":"0","REF_FRAME":"TEME","CLASSIFICATION_TYPE":"U","OBJECT_TYPE":"PAYLOAD","COUNTRY_CODE":"US","MEAN_MOTION_DOT":"0.00016042","MEAN_ELEMENT_THEORY":"SGP4"},{"EPOCH":"2023-05-22T16:05:23.036928","FILE":"3914964","REV_AT_EPOCH":"5163","TIME_SYSTEM":"UTC","BSTAR":"0.00087989000000","NORAD_CAT_ID":"52855","INCLINATION":"53.2150","TLE_LINE2":"2 52855  53.2150 292.1455 0000892  71.9737 288.1352 15.08848596 51632","TLE_LINE1":"1 52855U 22062AB  23142.67040552  .00013747  00000-0  87989-3 0  9994","APOAPSIS":"540.336","DECAY_DATE":null,"ELEMENT_SET_NO":"999","LAUNCH_DATE":"2022-06-17","MEAN_ANOMALY":"288.1352","RCS_SIZE":"LARGE","MEAN_MOTION_DDOT":"0.0000000000000","OBJECT_NAME":"STARLINK-4209","GP_ID":"232358907","SITE":"AFETR","ARG_OF_PERICENTER":"71.9737","PERIAPSIS":"539.102","MEAN_MOTION":"15.08848596","CENTER_NAME":"EARTH","ECCENTRICITY":"0.00008920","SEMIMAJOR_AXIS":"6917.854","EPHEMERIS_TYPE":"0","RA_OF_ASC_NODE":"292.1455","OBJECT_ID":"2022-062AB","PERIOD":"95.437","COUNTRY_CODE":"US","MEAN_MOTION_DOT":"0.00013747","OBJECT_TYPE":"PAYLOAD","CLASSIFICATION_TYPE":"U","MEAN_ELEMENT_THEORY":"SGP4","REF_FRAME":"TEME"},{"FILE":"3914964","REV_AT_EPOCH":"5163","EPOCH":"2023-05-22T16:10:41.077056","TIME_SYSTEM":"UTC","BSTAR":"0.00122640000000","NORAD_CAT_ID":"52856","INCLINATION":"53.2146","TLE_LINE2":"2 52856  53.2146 292.1291 0001050  63.5471 296.5629 15.08853996 51635","TLE_LINE1":"1 52856U 22062AC  23142.67408654  .00019291  00000-0  12264-2 0  9999","ELEMENT_SET_NO":"999","LAUNCH_DATE":"2022-06-17","APOAPSIS":"540.429","DECAY_DATE":null,"SITE":"AFETR","ARG_OF_PERICENTER":"63.5471","RCS_SIZE":"LARGE","MEAN_ANOMALY":"296.5629","OBJECT_NAME":"STARLINK-4201","MEAN_MOTION_DDOT":"0.0000000000000","GP_ID":"232359157","ECCENTRICITY":"0.00010500","PERIAPSIS":"538.976","MEAN_MOTION":"15.08853996","CENTER_NAME":"EARTH","OBJECT_ID":"2022-062AC","RA_OF_ASC_NODE":"292.1291","PERIOD":"95.437","SEMIMAJOR_AXIS":"6917.838","EPHEMERIS_TYPE":"0","REF_FRAME":"TEME","MEAN_MOTION_DOT":"0.00019291","COUNTRY_CODE":"US","OBJECT_TYPE":"PAYLOAD","CLASSIFICATION_TYPE":"U","MEAN_ELEMENT_THEORY":"SGP4"},{"MEAN_ELEMENT_THEORY":"SGP4","OBJECT_TYPE":"PAYLOAD","CLASSIFICATION_TYPE":"U","MEAN_MOTION_DOT":"0.00022312","COUNTRY_CODE":"US","REF_FRAME":"TEME","EPHEMERIS_TYPE":"0","SEMIMAJOR_AXIS":"6917.813","PERIOD":"95.436","OBJECT_ID":"2022-062AD","RA_OF_ASC_NODE":"292.1787","CENTER_NAME":"EARTH","MEAN_MOTION":"15.08861918","PERIAPSIS":"538.980","ECCENTRICITY":"0.00010100","GP_ID":"232359408","MEAN_MOTION_DDOT":"0.0000000000000","OBJECT_NAME":"STARLINK-4199","MEAN_ANOMALY":"288.6624","RCS_SIZE":"LARGE","ARG_OF_PERICENTER":"71.4478","SITE":"AFETR","DECAY_DATE":null,"APOAPSIS":"540.377","LAUNCH_DATE":"2022-06-17","ELEMENT_SET_NO":"999","TLE_LINE2":"2 52857  53.2148 292.1787 0001010  71.4478 288.6624 15.08861918 51639","TLE_LINE1":"1 52857U 22062AD  23142.66304339  .00022312  00000-0  14147-2 0  9994","INCLINATION":"53.2148","NORAD_CAT_ID":"52857","BSTAR":"0.00141470000000","TIME_SYSTEM":"UTC","EPOCH":"2023-05-22T15:54:46.948896","REV_AT_EPOCH":"5163","FILE":"3914964"},{"ARG_OF_PERICENTER":"67.7212","SITE":"AFETR","GP_ID":"232360144","MEAN_ANOMALY":"292.3876","RCS_SIZE":"LARGE","MEAN_MOTION_DDOT":"0.0000000000000","OBJECT_NAME":"STARLINK-4198","ECCENTRICITY":"0.00009090","CENTER_NAME":"EARTH","PERIAPSIS":"539.081","MEAN_MOTION":"15.08851501","PERIOD":"95.437","RA_OF_ASC_NODE":"292.1410","OBJECT_ID":"2022-062AE","EPHEMERIS_TYPE":"0","SEMIMAJOR_AXIS":"6917.845","REF_FRAME":"TEME","MEAN_ELEMENT_THEORY":"SGP4","COUNTRY_CODE":"US","MEAN_MOTION_DOT":"0.00017147","OBJECT_TYPE":"PAYLOAD","CLASSIFICATION_TYPE":"U","REV_AT_EPOCH":"5163","FILE":"3914964","EPOCH":"2023-05-22T16:06:45.755424","TIME_SYSTEM":"UTC","BSTAR":"0.00109250000000","TLE_LINE2":"2 52858  53.2146 292.1410 0000909  67.7212 292.3876 15.08851501 51639","TLE_LINE1":"1 52858U 22062AE  23142.67136291  .00017147  00000-0  10925-2 0  9996","NORAD_CAT_ID":"52858","INCLINATION":"53.2146","LAUNCH_DATE":"2022-06-17","ELEMENT_SET_NO":"999","APOAPSIS":"540.339","DECAY_DATE":null},{"ECCENTRICITY":"0.00008730","CENTER_NAME":"EARTH","PERIAPSIS":"539.089","MEAN_MOTION":"15.08857221","ARG_OF_PERICENTER":"100.2233","SITE":"AFETR","GP_ID":"232335206","RCS_SIZE":"LARGE","MEAN_ANOMALY":"259.8857","OBJECT_NAME":"STARLINK-4196","MEAN_MOTION_DDOT":"0.0000000000000","REF_FRAME":"TEME","MEAN_ELEMENT_THEORY":"SGP4","MEAN_MOTION_DOT":"0.00014024","COUNTRY_CODE":"US","OBJECT_TYPE":"PAYLOAD","CLASSIFICATION_TYPE":"U","PERIOD":"95.436","OBJECT_ID":"2022-062AF","RA_OF_ASC_NODE":"291.3025","EPHEMERIS_TYPE":"0","SEMIMAJOR_AXIS":"6917.828","TIME_SYSTEM":"UTC","BSTAR":"0.00089701000000","REV_AT_EPOCH":"5215","FILE":"3914923","EPOCH":"2023-05-22T20:35:38.161248","LAUNCH_DATE":"2022-06-17","ELEMENT_SET_NO":"999","APOAPSIS":"540.297","DECAY_DATE":null,"TLE_LINE1":"1 52859U 22062AF  23142.85808057  .00014024  00000-0  89701-3 0  9993","TLE_LINE2":"2 52859  53.2150 291.3025 0000873 100.2233 259.8857 15.08857221 52154","NORAD_CAT_ID":"52859","INCLINATION":"53.2150"},{"PERIOD":"95.436","OBJECT_ID":"2022-062AG","RA_OF_ASC_NODE":"291.5643","EPHEMERIS_TYPE":"0","SEMIMAJOR_AXIS":"6917.827","REF_FRAME":"TEME","MEAN_ELEMENT_THEORY":"SGP4","COUNTRY_CODE":"US","MEAN_MOTION_DOT":"0.00018017","OBJECT_TYPE":"PAYLOAD","CLASSIFICATION_TYPE":"U","ARG_OF_PERICENTER":"63.1332","SITE":"AFETR","GP_ID":"232358658","RCS_SIZE":"LARGE","MEAN_ANOMALY":"296.9752","MEAN_MOTION_DDOT":"0.0000000000000","OBJECT_NAME":"STARLINK-4191","ECCENTRICITY":"0.00009010","CENTER_NAME":"EARTH","PERIAPSIS":"539.069","MEAN_MOTION":"15.08857337","TLE_LINE2":"2 52860  53.2159 291.5643 0000901  63.1332 296.9752 15.08857337 51650","TLE_LINE1":"1 52860U 22062AG  23142.79920471  .00018017  00000-0  11467-2 0  9992","NORAD_CAT_ID":"52860","INCLINATION":"53.2159","LAUNCH_DATE":"2022-06-17","ELEMENT_SET_NO":"999","APOAPSIS":"540.316","DECAY_DATE":null,"REV_AT_EPOCH":"5165","FILE":"3914964","EPOCH":"2023-05-22T19:10:51.286944","TIME_SYSTEM":"UTC","BSTAR":"0.00114670000000"},{"APOAPSIS":"540.237","DECAY_DATE":null,"ELEMENT_SET_NO":"999","LAUNCH_DATE":"2022-06-17","NORAD_CAT_ID":"52861","INCLINATION":"53.2168","TLE_LINE1":"1 52861U 22062AH  23142.84063487  .00006318  00000-0  41447-3 0  9997","TLE_LINE2":"2 52861  53.2168 291.3884 0000786 103.8618 256.2462 15.08856930 52157","TIME_SYSTEM":"UTC","BSTAR":"0.00041447000000","EPOCH":"2023-05-22T20:10:30.852768","FILE":"3914923","REV_AT_EPOCH":"5215","MEAN_MOTION_DOT":"0.00006318","COUNTRY_CODE":"US","OBJECT_TYPE":"PAYLOAD","CLASSIFICATION_TYPE":"U","MEAN_ELEMENT_THEORY":"SGP4","REF_FRAME":"TEME","SEMIMAJOR_AXIS":"6917.829","EPHEMERIS_TYPE":"0","OBJECT_ID":"2022-062AH","RA_OF_ASC_NODE":"291.3884","PERIOD":"95.436","PERIAPSIS":"539.150","MEAN_MOTION":"15.08856930","CENTER_NAME":"EARTH","ECCENTRICITY":"0.00007860","RCS_SIZE":"LARGE","MEAN_ANOMALY":"256.2462","MEAN_MOTION_DDOT":"0.0000000000000","OBJECT_NAME":"STARLINK-4112","GP_ID":"232334707","SITE":"AFETR","ARG_OF_PERICENTER":"103.8618"}];
